IRIDIUM 26              
1 24903U 97043A   25279.86408614  .00000695  00000+0  22698-3 0  9992
2 24903  86.3930  63.6621 0002310  89.3326 270.8136 14.37240351472785
IRIDIUM 22              
1 24907U 97043E   25279.88650837  .00000624  00000+0  20806-3 0  9995
2 24907  86.3926  67.2903 0002147  87.4408 272.7035 14.36042399472808
DUMMY MASS 1            
1 24925U 97048A   25279.51774381  .00000791  00000+0  85046-4 0  9994
2 24925  86.3294  83.8167 0008891 105.8831 254.3375 14.87085471521676
DUMMY MASS 2            
1 24926U 97048B   25279.70036455  .00000779  00000+0  84158-4 0  9998
2 24926  86.3293  85.3618 0009475 114.9931 245.2280 14.86836880521474
IRIDIUM 29              
1 24944U 97051A   25280.00860624  .00000710  00000+0  23512-3 0  9991
2 24944  86.3897  96.9721 0001914  87.8152 272.3264 14.36564984469326
IRIDIUM 33              
1 24946U 97051C   25279.48629821  .00000557  00000+0  18876-3 0  9991
2 24946  86.3812  96.4614 0009943  78.1139 282.1171 14.34962856468704
IRIDIUM 28              
1 24948U 97051E   25279.77227218  .00000722  00000+0  23489-3 0  9999
2 24948  86.3902  94.5211 0002658  86.4647 273.6855 14.37471068469876
IRIDIUM 36              
1 24967U 97056C   25279.50923875  .00000593  00000+0  19098-3 0  9995
2 24967  86.3943 126.2627 0002286  81.5420 278.6037 14.37695330468212
